ONEWEB-0113             
1 48050U 21025J   22327.70237320  .00000289  00000+0  75734-3 0  9994
2 48050  87.9058 218.8339 0001464  82.0177 278.1118 13.13471915 82733
ONEWEB-0112             
1 48051U 21025K   22327.76586555  .00000404  00000+0  10707-2 0  9995
2 48051  87.9052 218.7832 0001554  76.5766 283.5536 13.13470718 82753
ONEWEB-0156             
1 48052U 21025L   22327.70025934  .00000352  00000+0  92793-3 0  9997
2 48052  87.9058 218.8165 0001574  75.1794 284.9509 13.13471328 82728
ONEWEB-0161             
1 48053U 21025M   22327.74892182  .00000018  00000+0  14921-4 0  9996
2 48053  87.9056 218.7887 0001785  78.9219 281.2110 13.13472514 82663
ONEWEB-0158             
1 48054U 21025N   22327.71294890  .00000016  00000+0  80665-5 0  9993
2 48054  87.9058 218.8215 0001293  87.2311 272.8966 13.13468661 82788
ONEWEB-0157             
1 48055U 21025P   22327.73622248 -.00000140  00000+0 -41950-3 0  9990
2 48055  87.9080 218.7683 0001730  60.3101 299.8200 13.13471205 82729
ONEWEB-0162             
1 48056U 21025Q   22327.77432068  .00000328  00000+0  86333-3 0  9994
2 48056  87.9052 218.7813 0001542  73.9699 286.1600 13.13471587 82701
ONEWEB-0155             
1 48057U 21025R   22328.17635530  .00000042  00000+0  79363-4 0  9998
2 48057  87.9136 218.6715 0001671  77.4517 282.6799 13.13467029 82904
ONEWEB-0149             
1 48058U 21025S   22327.74043992 -.00000430  00000+0 -12138-2 0  9994
2 48058  87.9053 218.7893 0001496  57.6881 302.4393 13.13468965 82642
ONEWEB-0148             
1 48059U 21025T   22328.16155115  .00000351  00000+0  92722-3 0  9991
2 48059  87.9054 218.7104 0001866  47.8921 312.2367 13.13467039 82827
ONEWEB-0160             
1 48060U 21025U   22328.10228708 -.00000099  00000+0 -30604-3 0  9998
2 48060  87.9055 218.7209 0000880 125.0944 235.0267 13.13467626 82761
ONEWEB-0163             
1 48061U 21025V   22328.16366446  .00000157  00000+0  39501-3 0  9995
2 48061  87.8991 218.7332 0002014  71.2343 288.9005 13.13472766 82907
ONEWEB-0159             
1 48062U 21025W   22328.15307527  .00000400  00000+0  10596-2 0  9993
2 48062  87.9058 218.7145 0001990  63.6399 296.4934 13.13472701 82817
ONEWEB-0164             
1 48063U 21025X   22327.75315932  .00000150  00000+0  37544-3 0  9993
2 48063  87.8967 218.8237 0001751  86.3672 273.7657 13.13467922 82741
ONEWEB-0167             
1 48064U 21025Y   22328.16476435 -.00028909  00000+0 -79256-1 0  9994
2 48064  87.9083 218.6847 0001833  68.5232 291.6092 13.13634084 82783
ONEWEB-0166             
1 48065U 21025Z   22327.72988161 -.00000280  00000+0 -80226-3 0  9993
2 48065  87.9050 218.7911 0001677  65.7998 294.3306 13.13468732 82801
ONEWEB-0151             
1 48066U 21025AA  22327.73197983 -.00000465  00000+0 -13078-2 0  9994
2 48066  87.9052 218.7908 0001719  87.8568 272.2758 13.13471269 82743
ONEWEB-0170             
1 48067U 21025AB  22327.73834031 -.00000249  00000+0 -71557-3 0  9994
2 48067  87.8991 218.8292 0001611 108.3953 251.7351 13.13469029 82708
ONEWEB-0168             
1 48068U 21025AC  22328.18060348 -.00000126  00000+0 -37933-3 0  9991
2 48068  87.9059 218.7325 0001671  71.8735 288.2576 13.13467817 82773
ONEWEB-0173             
1 48069U 21025AD  22328.17423250  .00000016  00000+0  76277-5 0  9998
2 48069  87.9059 218.7452 0002204  79.7814 280.3564 13.13472088 83017
ONEWEB-0171             
1 48070U 21025AE  22328.20808775  .00000123  00000+0  30195-3 0  9999
2 48070  87.9057 218.6974 0001686  69.4571 290.6739 13.13467202 82833
ONEWEB-0172             
1 48071U 21025AF  22328.19011948 -.00000238  00000+0 -68651-3 0  9993
2 48071  87.9015 218.7285 0001960  82.9283 277.2069 13.13465431 83727
ONEWEB-0174             
1 48072U 21025AG  22328.17212247  .00000091  00000+0  21431-3 0  9997
2 48072  87.9046 218.7219 0001578  47.8142 312.3121 13.13472217 83043
ONEWEB-0175             
1 48073U 21025AH  22327.74258341 -.00000134  00000+0 -40224-3 0  9996
2 48073  87.9122 218.7816 0001754  95.4372 264.6957 13.13469885 82640
ONEWEB-0177             
1 48074U 21025AJ  22328.21233832  .00000135  00000+0  33531-3 0  9990
2 48074  87.9005 218.7236 0002294  70.4903 289.6473 13.13471821 82890
ONEWEB-0178             
1 48075U 21025AK  22327.77324247  .00000392  00000+0  10398-2 0  9992
2 48075  87.9055 218.7838 0001877  71.5449 288.5884 13.13472591 82885
ONEWEB-0108             
1 48076U 21025AL  22327.73411579 -.00000292  00000+0 -83373-3 0  9999
2 48076  87.9052 218.7900 0001345  71.7013 288.4263 13.13471505 82808
ONEWEB-0169             
1 48077U 21025AM  22328.22081342  .00000217  00000+0  55991-3 0  9996
2 48077  87.8985 218.7248 0001388  63.5918 296.5354 13.13465677 82767
ONEWEB-0176             
1 48210U 21031A   22328.09690415 -.00000071  00000+0 -22470-3 0  9990
2 48210  87.9011 188.4211 0001756  78.5041 281.6285 13.14504349 78676
ONEWEB-0184             
1 48211U 21031B   22328.07153763  .00000351  00000+0  91310-3 0  9997
2 48211  87.9104 188.3906 0002378 111.4231 248.7152 13.14503773 77350
ONEWEB-0179             
1 48212U 21031C   22327.88759405 -.00000112  00000+0 -33766-3 0  9999
2 48212  87.9104 188.4268 0001848  73.9434 286.1899 13.14502662 77373
ONEWEB-0180             
1 48213U 21031D   22328.07365536  .00000290  00000+0  74822-3 0  9993
2 48213  87.9105 188.3857 0001705  75.1863 284.9456 13.14500556 77285
ONEWEB-0218             
1 48214U 21031E   22328.09479729 -.00000026  00000+0 -10551-3 0  9994
2 48214  87.9101 188.3931 0002747 100.3982 259.7457 13.14504966 77443
ONEWEB-0209             
1 48215U 21031F   22328.08423498  .00000144  00000+0  35273-3 0  9993
2 48215  87.9106 188.4238 0001712  76.6796 283.4524 13.14501787 77446
ONEWEB-0198             
1 48216U 21031G   22328.06942234  .00000266  00000+0  68207-3 0  9994
2 48216  87.9105 188.4387 0002206  86.9153 273.2229 13.14505194 77536
ONEWEB-0189             
1 48217U 21031H   22327.85374559  .00000127  00000+0  30826-3 0  9992
2 48217  87.9101 188.4695 0002205  82.4786 277.6594 13.14505535 77269
ONEWEB-0196             
1 48218U 21031J   22327.90874256  .00000187  00000+0  46972-3 0  9993
2 48218  87.9106 188.4415 0001698  85.4084 274.7240 13.14504117 77276
ONEWEB-0183             
1 48219U 21031K   22327.88122948 -.00000152  00000+0 -44338-3 0  9993
2 48219  87.9107 188.4664 0001610  75.6492 284.4816 13.14499825 77368
ONEWEB-0185             
1 48220U 21031L   22328.36648799  .00000148  00000+0  36540-3 0  9995
2 48220  87.9104 188.3478 0001648  75.0767 285.0545 13.14505904 77350
ONEWEB-0187             
1 48221U 21031M   22327.88441885 -.00000144  00000+0 -42232-3 0  9992
2 48221  87.9106 188.4671 0001726  74.4849 285.6471 13.14504328 77308
ONEWEB-0192             
1 48222U 21031N   22327.85798840  .00000051  00000+0  10363-3 0  9991
2 48222  87.9106 188.4191 0001784  86.8614 273.2719 13.14504375 77217
ONEWEB-0219             
1 48223U 21031P   22328.06731730  .00000248  00000+0  63383-3 0  9999
2 48223  87.9102 188.4164 0001662  74.9258 285.2056 13.14504053 77457
ONEWEB-0202             
1 48224U 21031Q   22327.89391309 -.00000255  00000+0 -72279-3 0  9998
2 48224  87.9102 188.4673 0002758  91.4818 268.6628 13.14502896 77404
ONEWEB-0204             
1 48225U 21031R   22327.87805768 -.00000509  00000+0 -14077-2 0  9999
2 48225  87.9104 188.4962 0000902  74.7421 285.3809 13.14502618 77297
ONEWEB-0205             
1 48226U 21031S   22328.05674844  .00000193  00000+0  48695-3 0  9991
2 48226  87.9104 188.4140 0002004  80.8482 279.2874 13.14504362 77344
ONEWEB-0206             
1 48227U 21031T   22328.10537294 -.00000160  00000+0 -46554-3 0  9993
2 48227  87.9104 188.3905 0001658  68.8765 291.2542 13.14501206 77303
ONEWEB-0182             
1 48228U 21031U   22328.09903364 -.00000028  00000+0 -11062-3 0  9996
2 48228  87.9106 188.4660 0001734  72.6714 287.4605 13.14500589 77510
ONEWEB-0186             
1 48229U 21031V   22327.88336282 -.00000167  00000+0 -48466-3 0  9994
2 48229  87.9105 188.4209 0001802  79.2766 280.8566 13.14504665 77427
ONEWEB-0181             
1 48230U 21031W   22328.08844784  .00000046  00000+0  90112-4 0  9990
2 48230  87.9105 188.4483 0001685  84.0999 276.0323 13.14500579 77310
ONEWEB-0188             
1 48231U 21031X   22327.90026414  .00000176  00000+0  43964-3 0  9999
2 48231  87.9106 188.4872 0001722  75.3864 284.7456 13.14505540 77181
ONEWEB-0220             
1 48232U 21031Y   22328.09055522 -.00000798  00000+0 -21862-2 0  9997
2 48232  87.9095 188.4089 0001859  75.6407 284.4929 13.14509263 77476
ONEWEB-0165             
1 48233U 21031Z   22328.04404356  .00000522  00000+0  13733-2 0  9997
2 48233  87.9094 188.4398 0001796  77.9415 282.1916 13.14506031 77429
ONEWEB-0199             
1 48234U 21031AA  22328.10325840 -.00000136  00000+0 -40067-3 0  9999
2 48234  87.9105 188.4042 0001758  78.6884 281.4443 13.14503138 77337
ONEWEB-0203             
1 48235U 21031AB  22328.09268448  .00000011  00000+0 -40466-5 0  9994
2 48235  87.9106 188.4018 0001612  99.1766 260.9546 13.14503097 77349
ONEWEB-0197             
1 48236U 21031AC  22328.07998342  .00000159  00000+0  39378-3 0  9996
2 48236  87.9105 188.4142 0001674  81.1350 278.9970 13.14504812 77251
ONEWEB-0194             
1 48237U 21031AD  22327.89603227  .00000063  00000+0  13629-3 0  9996
2 48237  87.9105 188.4403 0001324  99.8321 260.2958 13.14505482 77409
ONEWEB-0193             
1 48238U 21031AE  22327.91295660  .00000193  00000+0  48499-3 0  9995
2 48238  87.9103 188.4479 0001759  88.3953 271.7378 13.14504241 77356
ONEWEB-0191             
1 48239U 21031AF  22327.84741911  .00000210  00000+0  53292-3 0  9990
2 48239  87.9104 188.4424 0001547  88.6511 271.4796 13.14501354 77203
ONEWEB-0195             
1 48240U 21031AG  22328.05355534  .00000253  00000+0  64662-3 0  9998
2 48240  87.9105 188.3949 0002150  83.0647 277.0727 13.14505184 77219
